#dP2022  4 29  0  0  0.00000000      96 __u+U ITR00 FIT  IAC
## 2207 432000.00000000   900.00000000 59698 0.0000000000000
+  117   C06C07C08C09C10C11C12C13C14C16C19C20C21C22C23C24C25
+        C26C27C28C29C30C32C33C34C35C36C37C38C39C40C41C42C43
+        C44C45C46E01E02E03E04E05E07E08E09E10E11E12E13E14E15
+        E18E19E21E24E25E26E27E30E31E33E34E36G01G02G03G04G05
+        G06G07G08G09G10G11G12G13G14G15G16G17G18G19G20G21G22
+        G23G24G25G26G27G28G29G30G31G32J02J03R01R02R03R04R05
+        R07R08R09R11R12R13R14R15R17R18R19R20R21R22R24  0  0
++         9  8  8  9  8  7  6  7  7  9  6  7  6  7  6  6  5
++         7  8  7  6  7  8  8  8  8  8  6  9  6  8  7  7  6
++         9  7  5  6  6  6  7  6  6  6  6  9  6  7  7  6  6
++         7  6  7  7  6  7  7  7  7  6  6  6  5  6  6  6  7
++         6  7  6  6  7  8  6  6  6  7  6  7  6  6  5  6  6
++         7  6  6  7  6  8  6  6  6  7  7  9  6  7  7  6  6
++         6  6  7  7  7  7  7  6  8  7  8  6  6  6  6  0  0
%c M  cc GPS ccc cccc cccc cccc cccc ccccc ccccc ccccc ccccc
%c cc cc ccc ccc cccc cccc cccc cccc ccccc ccccc ccccc ccccc
%f  0.0000000  0.000000000  0.00000000000  0.000000000000000
%f  0.0000000  0.000000000  0.00000000000  0.000000000000000
%i    0    0    0    0      0      0      0      0         0
%i    0    0    0    0      0      0      0      0         0
/* INFORMATION & ANALYSIS CENTER (IAC)      ULTRA-RAPID DATA
/* S/V CLOCKS ARE ALIGNED TO GNSS TIME                      
/* G:C1WC2W R:C1PC2P E:C1XC5X C:C2IC6I J:C1CC2S             
/* PCV:IGS14_2196 OL/AL:FES2004  NONE     YN ORB:CoN CLK:CoN
*  2022 04 29 23 45  0.00000000
PC06 -18603.440742  32160.165098  19760.599913   -110.750324
PC07  -5276.096222  38213.311885  17203.193514   -103.692703
PC08  -6041.837174  20061.142921 -36584.080168    286.838795
PC09  -9830.172626  30645.440753  27332.638629   -742.337072
PC10   1087.111568  41035.642843  10936.946289    134.424976
PC11   1457.934973 -18675.272207  20734.766308    322.380734
PC12  17348.615726 -20600.164005   7322.221560   -622.798269
PC13   3264.740989  23864.075316 -34425.987291    -46.619902
PC14  -5652.225800 -27285.478568   -643.420252    465.225554
PC16 -20812.183263  31989.632744  17812.856918    125.779967
PC19  11422.291290  23474.348503   9926.571979    874.113204
PC20    289.176864  27043.453257  -6930.790149   -895.925725
PC21  11809.747235 -14468.640309  20749.303492   -202.237770
PC22  16393.084918   6233.813780  21720.914633   -972.734377
PC23 -26804.355400  -6997.844684   3368.122510   -930.690062
PC24   2297.201061 -16344.436006 -22513.847346   -958.467999
PC25 -18785.657877 -16011.432730 -13045.108811   -743.748525
PC26  19237.383867  -7735.144165 -18672.973569    744.747185
PC27 -22038.270728  17041.557099   1427.657090    715.619118
PC28 -21932.066825   2943.250519  17001.157041     61.099132
PC29   9163.916220  13109.776285 -22876.976900    548.089346
PC30  -9235.157847  21914.140710 -14592.168008    497.750354
PC32 -11688.333772  14569.901891 -20715.447999   -962.629208
PC33 -11497.494886 -23445.417888  -9800.463284   -966.122005
PC34   8393.998054 -21791.802540  15283.456785   -414.437788
PC35  21511.206566  -2801.911941 -17587.120130    251.680082
PC36  17951.968600  16598.464960  13473.307965   -963.798970
PC37 -20334.890158   6469.633429  18006.171530   -917.249794
PC38 -14620.659910  19120.641244 -34607.700739    228.692878
PC39 -24224.927779  32458.551900  11431.261166     34.971027
PC40  -9212.488525  35363.330744  21158.874405    265.013343
PC41 -16415.373736  -6683.422030 -21496.387580   -965.997165
PC42    466.713632 -26742.796211   7967.116148   -959.550760
PC43  -8525.922564 -13753.472695  22725.015702   -926.989131
PC44  21547.539056 -17687.315741  -1667.484019    643.900207
PC45  26805.008286   6810.818311  -3643.739840    744.340320
PC46   -611.766475  16653.464697  22380.657163   -298.527647
PE01 -19037.293643   1487.401104  22615.709544   -625.050377
PE02  18939.260834  -1674.686050 -22687.066003    296.037765
PE03  18544.884716 -13600.196023  18633.566712   -553.207775
PE04 -11206.366378  27278.559468  -2542.383540  -1017.358753
PE05  15110.617136   8332.222889  24059.312705   -186.183306
PE07  -2930.818792 -25094.085677 -15402.946160   -663.615265
PE08  10933.458912 -27404.901614   2291.313374   -520.795109
PE09   3044.014011  24988.416035  15593.195505   -501.451856
PE10  -4156.982714  16721.066334 -24077.998331   -509.870344
PE11   7938.288180  14624.507545 -24494.377068   3814.865043
PE12 -14948.791708  16137.811416 -19798.639557   4638.056306
PE13  -7138.761060 -14761.259575  24643.039962    428.360139
PE14 -18007.762128  21055.616180   6564.594365  -1831.686743
PE15  15106.452241 -16089.101039  19734.505721    748.645240
PE18  21334.377527  -9323.226817 -16582.264055  -1506.151144
PE19 -18648.359830  11124.485614 -20102.598704  -3848.887047
PE21 -22936.557243 -15530.421740  10435.034539   -731.353809
PE24  12888.294550  24871.235288   9515.401378   -588.248886
PE25  22900.970271  15731.630809 -10201.203009   -572.187417
PE26 -25604.446347  -4327.481649  14203.233640  -1088.065714
PE27 -13909.425443 -24728.051577  -8457.503883   -287.608457
PE30   4245.867546 -18682.936175 -22579.120864   -471.021437
PE31  -3233.615240  19292.700601  22217.669626   -495.853749
PE33 -28330.499001   7921.783882  -3214.953217   -457.124477
PE34  28270.403971  -8083.968939   3400.507696   -514.594218
PE36  25050.567975   4770.840203 -15042.320101   -366.733743
PG01   9656.904449  13398.262669 -21177.041518    373.770577
PG02  13754.277223 -14715.467753  18040.760112   -653.264108
PG03  12492.218677  23183.851840  -4007.735400   -226.143798
PG04   2862.534707  20141.333619  17039.174743   -171.675266
PG05   -721.225220 -20485.176292  16644.250150    -80.091701
PG06  25210.719484  -5861.143907   6214.573652    284.988685
PG07  23460.544851   6620.209566  11524.116440    321.391747
PG08  -3861.863413  24327.674704  -9495.922349    -65.990641
PG09  11577.687874  10857.333097  21225.961144   -340.321784
PG10 -18290.258800  -4058.307704 -18794.227374   -396.583760
PG11  14833.082036 -12765.542060  17946.171038    -31.784067
PG12  -8053.381699 -24277.880241  -7645.585508   -207.980341
PG13  12774.155067 -23009.190980  -2966.653821    302.927815
PG14  18616.170718   5334.870227 -18218.733899   -105.729765
PG15    122.306144 -24506.758310 -10249.100646    -65.063342
PG16  -5330.599298  17264.607889  19028.972238   -496.468716
PG17  17792.734148  -6867.094203 -18073.539280    606.590074
PG18 -22978.900152  -6698.326932  11620.886187    182.884661
PG19  18866.611297 -12659.745523 -13846.876151    150.923317
PG20   7629.146071 -14256.484759  21103.116692    515.594253
PG21  -1561.495534  15145.169136 -21051.207696    160.813218
PG22 -18052.278160  15789.103424 -10799.246932    251.285796
PG23 -19664.726699 -13896.034901 -11330.555607    -18.559629
PG24  -5693.116418 -15120.818793 -21413.958386    249.246984
PG25 -17540.368950 -19496.506613   4756.891197    318.457896
PG26 -13531.579152   8049.014970  21317.528379    202.220969
PG27 -12438.889217  23140.338239   1718.356511    193.983476
PG28  14741.531703  -3557.294777 -21270.582858    365.553976
PG29  -9619.905848 -12133.274406  21518.826650   -508.485574
PG30  26574.792381    422.056680   2622.940735   -525.932498
PG31 -24472.404012   7046.447554   8211.360686   -175.565794
PG32 -17766.919871   9415.744087 -17109.869839   -116.193810
PJ02 -24888.904694  22797.100249  30201.107001     -3.112859
PJ03 -35283.842953  22460.383733   -726.055994     -1.836676
PR01  -6054.076593  20705.695305 -13617.960399 999999.999999
PR02   2533.723410  24708.616367   5720.349651    516.953431
PR03   9371.521061  13241.130837  19716.740500     55.792820
PR04  10608.979404  -5304.281780  22617.304570    139.144613
PR05   6250.530322 -21015.035945  13072.485840     92.020035
PR07  -9478.859168 -12664.647741 -19980.610049     34.471686
PR08 -10657.055033   5474.822388 -22453.249215    -64.867453
PR09 -11234.583699 -15586.533196 -16721.395612     52.439577
PR11 -20473.975574  -3322.808997  14846.161682     40.081613
PR12  -6393.919020   9011.724869  23013.981738     18.180485
PR13  10203.919147  15311.965992  17649.184015    -21.611498
PR14  21984.863169  12920.142120    950.047994     77.061120
PR15  20095.293375   2962.653430 -15414.120161     96.471561
PR17  14719.116122   2399.764000 -20680.786522    521.826117
PR18  22657.758411  -8567.849768  -8074.637621    115.211297
PR19  19709.721693 -14246.187941   7697.374676   -187.238963
PR20   2921.881962 -12553.378280  22024.940946    -69.621342
PR21 -15817.602585  -1379.778789  19966.032355   -297.324933
PR22 -22723.014357   8872.215576   7257.908734   -180.067649
PR24  -1669.176412  12725.128233 -22033.537553     91.416345
EOF
